start=new Date('2021-10-29T00:00:00.000Z').valueOf();
sats=[{"ECCENTRICITY":"0.00016100","DECAY_DATE":null,"OBJECT_ID":"2021-024Q","RA_OF_ASC_NODE":"210.1473","TLE_LINE2":"2 47991  53.0515 210.1473 0001610  64.1194  40.2505 15.04764993  3605","MEAN_MOTION_DDOT":"0.0000000000000","REV_AT_EPOCH":"360","MEAN_MOTION_DOT":"-0.00019849","EPHEMERIS_TYPE":"0","SITE":"AFETR","MEAN_ELEMENT_THEORY":"SGP4","ARG_OF_PERICENTER":"64.1194","FILE":"3189402","OBJECT_TYPE":"PAYLOAD","REF_FRAME":"TEME","CLASSIFICATION_TYPE":"U","TLE_LINE1":"1 47991U 21024Q   21302.00001157 -.00019849  00000-0 -13769-2 0  9992","GP_ID":"188366808","SEMIMAJOR_AXIS":"6930.364","EPOCH":"2021-10-29T00:00:00.999648","PERIOD":"95.696","BSTAR":"-0.00137690000000","LAUNCH_DATE":"2021-03-24","MEAN_ANOMALY":"40.2505","COUNTRY_CODE":"US","ELEMENT_SET_NO":"999","NORAD_CAT_ID":"47991","OBJECT_NAME":"STARLINK-2279","MEAN_MOTION":"15.04764993","TIME_SYSTEM":"UTC","RCS_SIZE":"MEDIUM","PERIAPSIS":"551.113","CENTER_NAME":"EARTH","APOAPSIS":"553.345","INCLINATION":"53.0515"},{"PERIOD":"95.591","EPOCH":"2021-10-29T00:00:00.999648","SEMIMAJOR_AXIS":"6925.298","BSTAR":"-0.00145280000000","LAUNCH_DATE":"2021-03-24","MEAN_ANOMALY":"13.9342","COUNTRY_CODE":"US","ELEMENT_SET_NO":"999","NORAD_CAT_ID":"47992","OBJECT_NAME":"STARLINK-2229","TIME_SYSTEM":"UTC","MEAN_MOTION":"15.06416448","APOAPSIS":"548.562","INCLINATION":"53.0504","RCS_SIZE":"LARGE","CENTER_NAME":"EARTH","PERIAPSIS":"545.764","ECCENTRICITY":"0.00020200","DECAY_DATE":null,"REV_AT_EPOCH":"361","OBJECT_ID":"2021-024R","MEAN_MOTION_DDOT":"0.0000000000000","TLE_LINE2":"2 47992  53.0504 206.4693 0002020  48.9232  13.9342 15.06416448  3613","RA_OF_ASC_NODE":"206.4693","MEAN_MOTION_DOT":"-0.00021865","EPHEMERIS_TYPE":"0","MEAN_ELEMENT_THEORY":"SGP4","SITE":"AFETR","ARG_OF_PERICENTER":"48.9232","OBJECT_TYPE":"PAYLOAD","REF_FRAME":"TEME","CLASSIFICATION_TYPE":"U","FILE":"3189402","GP_ID":"188368060","TLE_LINE1":"1 47992U 21024R   21302.00001157 -.00021865  00000-0 -14528-2 0  9998"},{"MEAN_MOTION":"15.06405393","TIME_SYSTEM":"UTC","PERIAPSIS":"546.111","CENTER_NAME":"EARTH","RCS_SIZE":"LARGE","INCLINATION":"53.0561","APOAPSIS":"548.283","ELEMENT_SET_NO":"999","COUNTRY_CODE":"US","OBJECT_NAME":"STARLINK-2273","NORAD_CAT_ID":"47993","LAUNCH_DATE":"2021-03-24","MEAN_ANOMALY":"276.3725","SEMIMAJOR_AXIS":"6925.332","PERIOD":"95.592","EPOCH":"2021-10-28T06:34:59.850912","BSTAR":"0.00011204000000","FILE":"3189111","CLASSIFICATION_TYPE":"U","REF_FRAME":"TEME","OBJECT_TYPE":"PAYLOAD","TLE_LINE1":"1 47993U 21024S   21301.27430383  .00001388  00000-0  11204-3 0  9999","GP_ID":"188339016","SITE":"AFETR","MEAN_ELEMENT_THEORY":"SGP4","ARG_OF_PERICENTER":"83.7443","MEAN_MOTION_DOT":"0.00001388","EPHEMERIS_TYPE":"0","DECAY_DATE":null,"ECCENTRICITY":"0.00015680","MEAN_MOTION_DDOT":"0.0000000000000","TLE_LINE2":"2 47993  53.0561 249.7339 0001568  83.7443 276.3725 15.06405393 34959","RA_OF_ASC_NODE":"249.7339","OBJECT_ID":"2021-024S","REV_AT_EPOCH":"3495"},{"COUNTRY_CODE":"US","ELEMENT_SET_NO":"999","NORAD_CAT_ID":"47994","OBJECT_NAME":"STARLINK-2290","TIME_SYSTEM":"UTC","MEAN_MOTION":"15.06395083","APOAPSIS":"548.319","INCLINATION":"53.0542","RCS_SIZE":"LARGE","PERIAPSIS":"546.138","CENTER_NAME":"EARTH","EPOCH":"2021-10-28T14:38:40.354656","PERIOD":"95.592","SEMIMAJOR_AXIS":"6925.364","BSTAR":"0.00011912000000","LAUNCH_DATE":"2021-03-24","MEAN_ANOMALY":"295.0435","MEAN_ELEMENT_THEORY":"SGP4","SITE":"AFETR","ARG_OF_PERICENTER":"65.0717","REF_FRAME":"TEME","OBJECT_TYPE":"PAYLOAD","CLASSIFICATION_TYPE":"U","FILE":"3189402","TLE_LINE1":"1 47994U 21024T   21301.61018929  .00001493  00000-0  11912-3 0  9999","GP_ID":"188367059","ECCENTRICITY":"0.00015750","DECAY_DATE":null,"REV_AT_EPOCH":"3473","OBJECT_ID":"2021-024T","MEAN_MOTION_DDOT":"0.0000000000000","TLE_LINE2":"2 47994  53.0542 263.2226 0001575  65.0717 295.0435 15.06395083 34736","RA_OF_ASC_NODE":"263.2226","MEAN_MOTION_DOT":"0.00001493","EPHEMERIS_TYPE":"0"},{"ELEMENT_SET_NO":"999","COUNTRY_CODE":"US","OBJECT_NAME":"STARLINK-2309","NORAD_CAT_ID":"47995","TIME_SYSTEM":"UTC","MEAN_MOTION":"15.05585705","INCLINATION":"53.0700","APOAPSIS":"550.986","PERIAPSIS":"548.434","CENTER_NAME":"EARTH","RCS_SIZE":"LARGE","PERIOD":"95.644","EPOCH":"2021-10-28T20:16:10.594848","SEMIMAJOR_AXIS":"6927.845","BSTAR":"0.00004414500000","LAUNCH_DATE":"2021-03-24","MEAN_ANOMALY":"288.3193","MEAN_ELEMENT_THEORY":"SGP4","SITE":"AFETR","ARG_OF_PERICENTER":"71.7996","CLASSIFICATION_TYPE":"U","OBJECT_TYPE":"PAYLOAD","REF_FRAME":"TEME","FILE":"3189402","GP_ID":"188367309","TLE_LINE1":"1 47995U 21024U   21301.84456707  .00000364  00000-0  44145-4 0  9996","DECAY_DATE":null,"ECCENTRICITY":"0.00018420","REV_AT_EPOCH":"3527","MEAN_MOTION_DDOT":"0.0000000000000","TLE_LINE2":"2 47995  53.0700 227.0229 0001842  71.7996 288.3193 15.05585705 35271","RA_OF_ASC_NODE":"227.0229","OBJECT_ID":"2021-024U","MEAN_MOTION_DOT":"0.00000364","EPHEMERIS_TYPE":"0"},{"ELEMENT_SET_NO":"999","COUNTRY_CODE":"US","OBJECT_NAME":"STARLINK-2260","NORAD_CAT_ID":"47996","TIME_SYSTEM":"UTC","MEAN_MOTION":"15.73222836","INCLINATION":"53.0427","APOAPSIS":"353.971","CENTER_NAME":"EARTH","PERIAPSIS":"345.420","RCS_SIZE":"LARGE","PERIOD":"91.532","EPOCH":"2021-10-29T00:00:00.999648","SEMIMAJOR_AXIS":"6727.830","BSTAR":"-0.00016921000000","LAUNCH_DATE":"2021-03-24","MEAN_ANOMALY":"281.1543","MEAN_ELEMENT_THEORY":"SGP4","SITE":"AFETR","ARG_OF_PERICENTER":"300.9853","CLASSIFICATION_TYPE":"U","REF_FRAME":"TEME","OBJECT_TYPE":"PAYLOAD","FILE":"3189402","TLE_LINE1":"1 47996U 21024V   21302.00001157 -.00024366  00000-0 -16921-3 0  9991","GP_ID":"188367560","DECAY_DATE":null,"ECCENTRICITY":"0.00063550","REV_AT_EPOCH":"367","TLE_LINE2":"2 47996  53.0427 197.9593 0006355 300.9853 281.1543 15.73222836  3677","RA_OF_ASC_NODE":"197.9593","MEAN_MOTION_DDOT":"0.0000000000000","OBJECT_ID":"2021-024V","MEAN_MOTION_DOT":"-0.00024366","EPHEMERIS_TYPE":"0"},{"MEAN_MOTION_DOT":"-0.00000518","EPHEMERIS_TYPE":"0","DECAY_DATE":null,"ECCENTRICITY":"0.00015370","TLE_LINE2":"2 47997  53.0572 263.3101 0001537  65.7547 294.3603 15.06400517 34795","RA_OF_ASC_NODE":"263.3101","MEAN_MOTION_DDOT":"0.0000000000000","OBJECT_ID":"2021-024W","REV_AT_EPOCH":"3479","FILE":"3189402","CLASSIFICATION_TYPE":"U","REF_FRAME":"TEME","OBJECT_TYPE":"PAYLOAD","TLE_LINE1":"1 47997U 21024W   21301.59175744 -.00000518  00000-0 -15861-4 0  9995","GP_ID":"188367807","SITE":"AFETR","MEAN_ELEMENT_THEORY":"SGP4","ARG_OF_PERICENTER":"65.7547","LAUNCH_DATE":"2021-03-24","MEAN_ANOMALY":"294.3603","SEMIMAJOR_AXIS":"6925.347","EPOCH":"2021-10-28T14:12:07.842816","PERIOD":"95.592","BSTAR":"-0.00001586100000","MEAN_MOTION":"15.06400517","TIME_SYSTEM":"UTC","CENTER_NAME":"EARTH","PERIAPSIS":"546.148","RCS_SIZE":"LARGE","INCLINATION":"53.0572","APOAPSIS":"548.276","ELEMENT_SET_NO":"999","COUNTRY_CODE":"US","OBJECT_NAME":"STARLINK-2266","NORAD_CAT_ID":"47997"},{"SITE":"AFETR","MEAN_ELEMENT_THEORY":"SGP4","ARG_OF_PERICENTER":"72.3941","FILE":"3189111","REF_FRAME":"TEME","OBJECT_TYPE":"PAYLOAD","CLASSIFICATION_TYPE":"U","TLE_LINE1":"1 47998U 21024X   21301.24479476  .00001535  00000-0  12195-3 0  9991","GP_ID":"188339267","ECCENTRICITY":"0.00017770","DECAY_DATE":null,"OBJECT_ID":"2021-024X","RA_OF_ASC_NODE":"239.8692","TLE_LINE2":"2 47998  53.0517 239.8692 0001777  72.3941 287.7242 15.06400620 35034","MEAN_MOTION_DDOT":"0.0000000000000","REV_AT_EPOCH":"3503","MEAN_MOTION_DOT":"0.00001535","EPHEMERIS_TYPE":"0","COUNTRY_CODE":"US","ELEMENT_SET_NO":"999","NORAD_CAT_ID":"47998","OBJECT_NAME":"STARLINK-2296","MEAN_MOTION":"15.06400620","TIME_SYSTEM":"UTC","RCS_SIZE":"LARGE","CENTER_NAME":"EARTH","PERIAPSIS":"545.981","APOAPSIS":"548.442","INCLINATION":"53.0517","SEMIMAJOR_AXIS":"6925.347","EPOCH":"2021-10-28T05:52:30.267264","PERIOD":"95.592","BSTAR":"0.00012195000000","LAUNCH_DATE":"2021-03-24","MEAN_ANOMALY":"287.7242"},{"INCLINATION":"53.0505","APOAPSIS":"548.518","PERIAPSIS":"545.815","CENTER_NAME":"EARTH","RCS_SIZE":"LARGE","TIME_SYSTEM":"UTC","MEAN_MOTION":"15.06415394","OBJECT_NAME":"STARLINK-2218","NORAD_CAT_ID":"47999","ELEMENT_SET_NO":"999","COUNTRY_CODE":"US","MEAN_ANOMALY":"234.3010","LAUNCH_DATE":"2021-03-24","BSTAR":"-0.00084842000000","PERIOD":"95.591","EPOCH":"2021-10-29T00:00:00.999648","SEMIMAJOR_AXIS":"6925.301","GP_ID":"188366809","TLE_LINE1":"1 47999U 21024Y   21302.00001157 -.00012902  00000-0 -84842-3 0  9994","CLASSIFICATION_TYPE":"U","OBJECT_TYPE":"PAYLOAD","REF_FRAME":"TEME","FILE":"3189402","ARG_OF_PERICENTER":"48.5993","MEAN_ELEMENT_THEORY":"SGP4","SITE":"AFETR","EPHEMERIS_TYPE":"0","MEAN_MOTION_DOT":"-0.00012902","REV_AT_EPOCH":"362","TLE_LINE2":"2 47999  53.0505 206.4686 0001951  48.5993 234.3010 15.06415394  3626","MEAN_MOTION_DDOT":"0.0000000000000","RA_OF_ASC_NODE":"206.4686","OBJECT_ID":"2021-024Y","DECAY_DATE":null,"ECCENTRICITY":"0.00019510"},{"PERIAPSIS":"383.004","CENTER_NAME":"EARTH","RCS_SIZE":"LARGE","INCLINATION":"53.0427","APOAPSIS":"384.599","MEAN_MOTION":"15.61335132","TIME_SYSTEM":"UTC","OBJECT_NAME":"STARLINK-2270","NORAD_CAT_ID":"48000","ELEMENT_SET_NO":"999","COUNTRY_CODE":"US","MEAN_ANOMALY":"345.6982","LAUNCH_DATE":"2021-03-24","BSTAR":"-0.00871080000000","SEMIMAJOR_AXIS":"6761.936","PERIOD":"92.229","EPOCH":"2021-10-29T00:00:00.999648","TLE_LINE1":"1 48000U 21024Z   21302.00001157 -.00693780  00000-0 -87108-2 0  9994","GP_ID":"188368061","FILE":"3189402","CLASSIFICATION_TYPE":"U","OBJECT_TYPE":"PAYLOAD","REF_FRAME":"TEME","ARG_OF_PERICENTER":"75.6024","SITE":"AFETR","MEAN_ELEMENT_THEORY":"SGP4","EPHEMERIS_TYPE":"0","MEAN_MOTION_DOT":"-0.00693780","RA_OF_ASC_NODE":"198.3397","TLE_LINE2":"2 48000  53.0427 198.3397 0001180  75.6024 345.6982 15.61335132  3672","MEAN_MOTION_DDOT":"0.0000000000000","OBJECT_ID":"2021-024Z","REV_AT_EPOCH":"367","DECAY_DATE":null,"ECCENTRICITY":"0.00011800"}];
